{
  "norad_id": 56372,
  "name": "GS-1",
  "history": [
    {
      "epoch": "2026-03-28T13:28:50.312352",
      "apogee_km": 35800.00880139829,
      "perigee_km": 35760.177705454844,
      "latitude_deg": -0.46753334876980523,
      "longitude_deg": -128.87743072002195,
      "semi_major_axis_km": 42158.23025342657,
      "eccentricity": 0.0004724,
      "inclination_deg": 2.5179,
      "raan_deg": 80.7635,
      "arg_perigee_deg": 267.9888,
      "mean_anomaly_deg": 124.8921,
      "mean_motion_rev_day": 1.00294982
    }
  ]
}